OBJECT_NAME,OBJECT_ID,EPOCH,MEAN_MOTION,ECCENTRICITY,INCLINATION,RA_OF_ASC_NODE,ARG_OF_PERICENTER,MEAN_ANOMALY,EPHEMERIS_TYPE,CLASSIFICATION_TYPE,NORAD_CAT_ID,ELEMENT_SET_NO,REV_AT_EPOCH,BSTAR,MEAN_MOTION_DOT,MEAN_MOTION_DDOT
COSMOS 2508 (RODNIK-S 14),2015-050B,2026-06-04T18:59:01.239648,12.42913889,.0015467,82.4878,85.8977,52.1642,308.0835,0,U,40921,999,48530,.63698E-3,.98E-6,0
COSMOS 2509 (RODNIK-S 15),2015-050C,2026-06-04T19:27:51.912000,12.42883122,.001587,82.4886,85.9862,68.0504,292.2260,0,U,40922,999,48534,.18553E-4,.13E-6,0
LINGQIAO VIDEO A,2015-057B,2026-06-04T19:57:47.315232,14.77376622,.0015723,97.6618,151.2437,314.3071,45.6850,0,U,40959,999,57358,.16689E-3,.114E-4,0
LINGQIAO VIDEO B,2015-057C,2026-06-04T21:03:00.201024,14.77481218,.00159,97.6583,152.4534,314.2108,45.7797,0,U,40960,999,57363,.10804E-3,.723E-5,0
JILIN-1,2015-057D,2026-06-04T16:37:57.582048,14.78139463,.001566,97.6506,155.6804,307.7959,52.1834,0,U,40961,999,57376,.15633E-3,.1085E-4,0
FOX-1A (AO-85),2015-058D,2026-06-04T16:12:17.033760,14.90903375,.0129787,64.7765,317.8655,61.5039,299.9071,0,U,40967,999,11170,.31024E-3,.3428E-4,0
SINOD-D 1,2015-058E,2026-06-04T15:26:16.454400,14.95818251,.0118358,64.7765,298.1925,58.1097,303.1468,0,U,40968,999,11478,.3794E-3,.4714E-4,0
ELEKTRO-L 2,2015-074A,2026-06-04T01:30:52.284096,1.00272364,.00013296,6.6614,70.6831,280.5449,269.5208,0,U,41105,999,3837,0,-.107E-5,0
DAMPE,2015-078A,2026-06-04T19:31:45.407136,15.30751143,.0013509,97.4557,161.2199,115.4432,244.8209,0,U,41173,999,58265,.41511E-4,.1158E-4,0
ORBCOMM FM114,2015-081A,2026-06-01T23:30:56.809152,14.58838571,.00015469,47.0052,73.9009,135.7645,224.3365,0,U,41179,999,55553,.16355792E-3,.602E-5,0
ORBCOMM FM110,2015-081D,2026-06-02T23:53:49.713792,14.58854978,.00032303,47.0024,68.5419,358.8742,1.2136,0,U,41182,999,55555,.19639955E-3,.757E-5,0
ORBCOMM FM112,2015-081F,2026-06-03T22:12:08.428320,14.58883627,.00028538,47.0002,332.9588,156.2959,203.8059,0,U,41184,999,55701,.19992831E-3,.774E-5,0
ORBCOMM FM113,2015-081G,2026-06-01T12:06:07.822944,14.58839578,.00013088,47.0021,344.7743,154.2176,205.8776,0,U,41185,999,55664,.1680085E-3,.623E-5,0
ORBCOMM FM108,2015-081J,2026-06-01T22:42:30.904992,14.58851287,.00021293,47.0049,254.2558,152.3962,207.7037,0,U,41187,999,55785,.23678195E-3,.948E-5,0
ORBCOMM FM117,2015-081K,2026-06-02T17:36:15.708096,14.58849437,.00027018,47.0011,249.1714,159.5688,200.5306,0,U,41188,999,55801,.21351104E-3,.838E-5,0
ORBCOMM FM116,2015-081L,2026-06-03T22:43:27.841728,14.58862060,.00014327,47.0035,333.2243,348.9329,11.1525,0,U,41189,999,55700,.20577823E-3,.802E-5,0
HORYU-4,2016-012D,2026-06-01T10:26:11.976576,15.85409012,.00022929,30.9850,193.7734,171.6706,188.3991,0,U,41340,999,56830,.10080768E-2,.260233E-2,0
ZIYUAN 3-02 (ZY 3-02),2016-033A,2026-06-04T21:22:36.964704,15.21358007,.0011935,97.3833,231.8998,338.0973,21.9751,0,U,41556,999,55611,.30117E-3,.6693E-4,0
CARTOSAT-2C,2016-040A,2026-06-04T08:22:13.296864,15.19210003,.0009538,97.4487,215.5025,171.8850,188.2540,0,U,41599,999,55176,.16985E-3,.3511E-4,0
LAPAN-A3,2016-040E,2026-06-04T20:31:04.251648,15.33024305,.0012007,97.1488,152.4070,65.0358,295.2131,0,U,41603,999,55292,.12525E-3,.3928E-4,0
GAOFEN-3,2016-049A,2026-06-04T20:57:45.014688,14.42213469,.000114,98.4010,163.8452,97.9280,262.2039,0,U,41727,999,51687,.4423E-5,-.29E-6,0
CAS-2T & KS-1Q,2016-066G,2026-06-04T15:14:10.867200,14.44651724,.0342302,98.3817,231.5141,167.4688,193.5290,0,U,41847,999,50298,.28545E-3,.1982E-4,0
YUNHAI-1 01,2016-068A,2026-06-04T20:59:48.043968,14.32696095,.0006532,98.5829,166.9964,72.3594,287.8303,0,U,41857,999,50006,.96417E-4,.218E-5,0
RESOURCESAT-2A,2016-074A,2026-06-04T19:46:58.808064,14.21612926,.0003267,98.7525,229.4291,106.5557,253.5979,0,U,41877,999,49254,.18518E-3,.362E-5,0
TANSAT,2016-081A,2026-06-04T20:14:39.271776,14.59940298,.0020518,98.5362,155.7364,351.4245,8.6600,0,U,41898,999,50282,.10821E-3,.469E-5,0
